[{"OBJECT_NAME":"STARLINK-4787","OBJECT_ID":"2022-119U","EPOCH":"2026-03-09T23:27:19.044864","MEAN_MOTION":15.08823512,"ECCENTRICITY":0.00012789,"INCLINATION":53.219,"RA_OF_ASC_NODE":322.4315,"ARG_OF_PERICENTER":93.919,"MEAN_ANOMALY":266.1948,"EPHEMERIS_TYPE":0,"CLASSIFICATION_TYPE":"U","NORAD_CAT_ID":53904,"ELEMENT_SET_NO":999,"REV_AT_EPOCH":19173,"BSTAR":0.00011519537,"MEAN_MOTION_DOT":1.545e-5,"MEAN_MOTION_DDOT":0},{"OBJECT_NAME":"PSLV DEB","OBJECT_ID":"2001-049AH","EPOCH":"2026-03-09T23:39:21.767904","MEAN_MOTION":14.98984537,"ECCENTRICITY":0.00513683,"INCLINATION":98.1237,"RA_OF_ASC_NODE":87.2704,"ARG_OF_PERICENTER":48.4953,"MEAN_ANOMALY":9.0267,"EPHEMERIS_TYPE":0,"CLASSIFICATION_TYPE":"U","NORAD_CAT_ID":27089,"ELEMENT_SET_NO":999,"REV_AT_EPOCH":31452,"BSTAR":0.000212521,"MEAN_MOTION_DOT":2.577e-5,"MEAN_MOTION_DDOT":0}]
